start=new Date('2021-10-08T00:00:00.000Z').valueOf();
sats=[{"TIME_SYSTEM":"UTC","REV_AT_EPOCH":"3240","MEAN_MOTION_DDOT":"0.0000000000000","EPOCH":"2021-10-07T08:55:25.668768","CLASSIFICATION_TYPE":"U","LAUNCH_DATE":"2021-03-14","MEAN_ELEMENT_THEORY":"SGP4","MEAN_MOTION_DOT":"0.00001154","DECAY_DATE":null,"REF_FRAME":"TEME","FILE":"3150041","TLE_LINE1":"1 47888U 21021AE  21280.37182487  .00001154  00000-0  96352-4 0  9994","ARG_OF_PERICENTER":"114.2758","APOAPSIS":"547.952","OBJECT_ID":"2021-021AE","OBJECT_NAME":"STARLINK-2348","MEAN_ANOMALY":"245.8338","ECCENTRICITY":"0.00010240","EPHEMERIS_TYPE":"0","GP_ID":"186483597","COUNTRY_CODE":"US","BSTAR":"0.00009635200000","NORAD_CAT_ID":"47888","OBJECT_TYPE":"PAYLOAD","RA_OF_ASC_NODE":"318.5615","RCS_SIZE":"LARGE","SITE":"AFETR","INCLINATION":"53.0559","SEMIMAJOR_AXIS":"6925.378","PERIAPSIS":"546.533","PERIOD":"95.593","ELEMENT_SET_NO":"999","TLE_LINE2":"2 47888  53.0559 318.5615 0001024 114.2758 245.8338 15.06390520 32401","CENTER_NAME":"EARTH","MEAN_MOTION":"15.06390520"},{"OBJECT_ID":"2021-021AF","APOAPSIS":"547.927","ECCENTRICITY":"0.00010320","MEAN_ANOMALY":"253.7912","OBJECT_NAME":"STARLINK-2349","MEAN_ELEMENT_THEORY":"SGP4","LAUNCH_DATE":"2021-03-14","CLASSIFICATION_TYPE":"U","MEAN_MOTION_DDOT":"0.0000000000000","EPOCH":"2021-10-07T13:57:57.716064","TIME_SYSTEM":"UTC","REV_AT_EPOCH":"3296","TLE_LINE1":"1 47889U 21021AF  21280.58191801  .00002171  00000-0  16456-3 0  9994","ARG_OF_PERICENTER":"106.3191","REF_FRAME":"TEME","FILE":"3150302","DECAY_DATE":null,"MEAN_MOTION_DOT":"0.00002171","ELEMENT_SET_NO":"999","PERIAPSIS":"546.497","PERIOD":"95.592","SEMIMAJOR_AXIS":"6925.347","INCLINATION":"53.0570","MEAN_MOTION":"15.06400474","CENTER_NAME":"EARTH","TLE_LINE2":"2 47889  53.0570 317.6245 0001032 106.3191 253.7912 15.06400474 32963","BSTAR":"0.00016456000000","COUNTRY_CODE":"US","GP_ID":"186512615","EPHEMERIS_TYPE":"0","SITE":"AFETR","RA_OF_ASC_NODE":"317.6245","RCS_SIZE":"LARGE","NORAD_CAT_ID":"47889","OBJECT_TYPE":"PAYLOAD"},{"APOAPSIS":"548.039","OBJECT_ID":"2021-021AG","OBJECT_NAME":"STARLINK-2350","ECCENTRICITY":"0.00011480","MEAN_ANOMALY":"262.2126","MEAN_MOTION_DDOT":"0.0000000000000","EPOCH":"2021-10-07T09:41:51.961632","TIME_SYSTEM":"UTC","REV_AT_EPOCH":"3179","MEAN_ELEMENT_THEORY":"SGP4","CLASSIFICATION_TYPE":"U","LAUNCH_DATE":"2021-03-14","REF_FRAME":"TEME","FILE":"3149232","DECAY_DATE":null,"MEAN_MOTION_DOT":"0.00001506","ARG_OF_PERICENTER":"97.8993","TLE_LINE1":"1 47890U 21021AG  21280.40407363  .00001506  00000-0  12003-3 0  9995","SEMIMAJOR_AXIS":"6925.379","INCLINATION":"53.0568","ELEMENT_SET_NO":"999","PERIOD":"95.593","PERIAPSIS":"546.449","CENTER_NAME":"EARTH","TLE_LINE2":"2 47890  53.0568 328.4176 0001148  97.8993 262.2126 15.06390151 31799","MEAN_MOTION":"15.06390151","COUNTRY_CODE":"US","GP_ID":"186461942","EPHEMERIS_TYPE":"0","BSTAR":"0.00012003000000","RCS_SIZE":"LARGE","RA_OF_ASC_NODE":"328.4176","OBJECT_TYPE":"PAYLOAD","NORAD_CAT_ID":"47890","SITE":"AFETR"},{"MEAN_ANOMALY":"279.4757","ECCENTRICITY":"0.00009160","OBJECT_NAME":"STARLINK-2351","OBJECT_ID":"2021-021AH","APOAPSIS":"547.834","TLE_LINE1":"1 47891U 21021AH  21280.45566386  .00001367  00000-0  11062-3 0  9991","ARG_OF_PERICENTER":"80.6335","DECAY_DATE":null,"MEAN_MOTION_DOT":"0.00001367","REF_FRAME":"TEME","FILE":"3149232","LAUNCH_DATE":"2021-03-14","CLASSIFICATION_TYPE":"U","MEAN_ELEMENT_THEORY":"SGP4","TIME_SYSTEM":"UTC","REV_AT_EPOCH":"3291","EPOCH":"2021-10-07T10:56:09.357504","MEAN_MOTION_DDOT":"0.0000000000000","MEAN_MOTION":"15.06404678","TLE_LINE2":"2 47891  53.0554 328.1814 0000916  80.6335 279.4757 15.06404678 32918","CENTER_NAME":"EARTH","PERIAPSIS":"546.565","PERIOD":"95.592","ELEMENT_SET_NO":"999","INCLINATION":"53.0554","SEMIMAJOR_AXIS":"6925.334","SITE":"AFETR","OBJECT_TYPE":"PAYLOAD","NORAD_CAT_ID":"47891","RA_OF_ASC_NODE":"328.1814","RCS_SIZE":"LARGE","BSTAR":"0.00011062000000","EPHEMERIS_TYPE":"0","GP_ID":"186462192","COUNTRY_CODE":"US"},{"INCLINATION":"53.0558","SEMIMAJOR_AXIS":"6925.344","PERIOD":"95.592","PERIAPSIS":"546.577","ELEMENT_SET_NO":"999","TLE_LINE2":"2 47892  53.0558 327.5092 0000913  92.6449 267.4645 15.06401396 32771","CENTER_NAME":"EARTH","MEAN_MOTION":"15.06401396","EPHEMERIS_TYPE":"0","GP_ID":"186512389","COUNTRY_CODE":"US","BSTAR":"0.00005772200000","NORAD_CAT_ID":"47892","OBJECT_TYPE":"PAYLOAD","RCS_SIZE":"LARGE","RA_OF_ASC_NODE":"327.5092","SITE":"AFETR","APOAPSIS":"547.842","OBJECT_ID":"2021-021AJ","OBJECT_NAME":"STARLINK-2352","MEAN_ANOMALY":"267.4645","ECCENTRICITY":"0.00009130","TIME_SYSTEM":"UTC","REV_AT_EPOCH":"3277","EPOCH":"2021-10-07T14:33:46.384704","MEAN_MOTION_DDOT":"0.0000000000000","LAUNCH_DATE":"2021-03-14","CLASSIFICATION_TYPE":"U","MEAN_ELEMENT_THEORY":"SGP4","MEAN_MOTION_DOT":"0.00000579","DECAY_DATE":null,"FILE":"3150302","REF_FRAME":"TEME","ARG_OF_PERICENTER":"92.6449","TLE_LINE1":"1 47892U 21021AJ  21280.60678686  .00000579  00000-0  57722-4 0  9994"},{"OBJECT_TYPE":"PAYLOAD","NORAD_CAT_ID":"47894","RA_OF_ASC_NODE":"318.3850","RCS_SIZE":"LARGE","SITE":"AFETR","EPHEMERIS_TYPE":"0","GP_ID":"186464707","COUNTRY_CODE":"US","BSTAR":"-0.00000763410000","TLE_LINE2":"2 47894  53.0570 318.3850 0001101  91.9791 268.1324 15.06387211 32400","CENTER_NAME":"EARTH","MEAN_MOTION":"15.06387211","INCLINATION":"53.0570","SEMIMAJOR_AXIS":"6925.388","PERIAPSIS":"546.490","PERIOD":"95.593","ELEMENT_SET_NO":"999","MEAN_MOTION_DOT":"-0.00000395","DECAY_DATE":null,"FILE":"3149255","REF_FRAME":"TEME","TLE_LINE1":"1 47894U 21021AL  21280.41236137 -.00000395  00000-0 -76341-5 0  9993","ARG_OF_PERICENTER":"91.9791","REV_AT_EPOCH":"3240","TIME_SYSTEM":"UTC","MEAN_MOTION_DDOT":"0.0000000000000","EPOCH":"2021-10-07T09:53:48.022368","LAUNCH_DATE":"2021-03-14","CLASSIFICATION_TYPE":"U","MEAN_ELEMENT_THEORY":"SGP4","OBJECT_NAME":"STARLINK-2354","MEAN_ANOMALY":"268.1324","ECCENTRICITY":"0.00011010","APOAPSIS":"548.015","OBJECT_ID":"2021-021AL"},{"OBJECT_NAME":"STARLINK-2355","ECCENTRICITY":"0.00012840","MEAN_ANOMALY":"269.7001","APOAPSIS":"548.190","OBJECT_ID":"2021-021AM","FILE":"3149284","REF_FRAME":"TEME","DECAY_DATE":null,"MEAN_MOTION_DOT":"-0.00003082","ARG_OF_PERICENTER":"90.4135","TLE_LINE1":"1 47895U 21021AM  21280.48979587 -.00003082  00000-0 -18823-3 0  9999","MEAN_MOTION_DDOT":"0.0000000000000","EPOCH":"2021-10-07T11:45:18.363168","REV_AT_EPOCH":"3241","TIME_SYSTEM":"UTC","MEAN_ELEMENT_THEORY":"SGP4","LAUNCH_DATE":"2021-03-14","CLASSIFICATION_TYPE":"U","CENTER_NAME":"EARTH","TLE_LINE2":"2 47895  53.0567 318.0363 0001284  90.4135 269.7001 15.06371509 32414","MEAN_MOTION":"15.06371509","SEMIMAJOR_AXIS":"6925.436","INCLINATION":"53.0567","ELEMENT_SET_NO":"999","PERIOD":"95.594","PERIAPSIS":"546.412","RCS_SIZE":"LARGE","RA_OF_ASC_NODE":"318.0363","NORAD_CAT_ID":"47895","OBJECT_TYPE":"PAYLOAD","SITE":"AFETR","COUNTRY_CODE":"US","EPHEMERIS_TYPE":"0","GP_ID":"186464717","BSTAR":"-0.00018823000000"},{"COUNTRY_CODE":"US","EPHEMERIS_TYPE":"0","GP_ID":"186511632","BSTAR":"0.00002357900000","RA_OF_ASC_NODE":"332.4277","RCS_SIZE":"LARGE","NORAD_CAT_ID":"47896","OBJECT_TYPE":"PAYLOAD","SITE":"AFETR","SEMIMAJOR_AXIS":"6925.348","INCLINATION":"53.0548","ELEMENT_SET_NO":"999","PERIAPSIS":"546.650","PERIOD":"95.592","CENTER_NAME":"EARTH","TLE_LINE2":"2 47896  53.0548 332.4277 0000814  91.4030 268.7052 15.06400056 32652","MEAN_MOTION":"15.06400056","EPOCH":"2021-10-07T14:46:22.231776","MEAN_MOTION_DDOT":"0.0000000000000","TIME_SYSTEM":"UTC","REV_AT_EPOCH":"3265","MEAN_ELEMENT_THEORY":"SGP4","LAUNCH_DATE":"2021-03-14","CLASSIFICATION_TYPE":"U","FILE":"3150302","REF_FRAME":"TEME","MEAN_MOTION_DOT":"0.00000070","DECAY_DATE":null,"TLE_LINE1":"1 47896U 21021AN  21280.61553509  .00000070  00000-0  23579-4 0  9994","ARG_OF_PERICENTER":"91.4030","APOAPSIS":"547.777","OBJECT_ID":"2021-021AN","OBJECT_NAME":"STARLINK-2356","ECCENTRICITY":"0.00008140","MEAN_ANOMALY":"268.7052"},{"BSTAR":"0.00347720000000","EPHEMERIS_TYPE":"0","GP_ID":"186464719","COUNTRY_CODE":"US","SITE":"AFETR","NORAD_CAT_ID":"47897","OBJECT_TYPE":"PAYLOAD","RCS_SIZE":"MEDIUM","RA_OF_ASC_NODE":"318.0694","PERIOD":"95.610","PERIAPSIS":"547.233","ELEMENT_SET_NO":"999","INCLINATION":"53.0562","SEMIMAJOR_AXIS":"6926.213","MEAN_MOTION":"15.06118078","TLE_LINE2":"2 47897  53.0562 318.0694 0001220  81.6950 278.4177 15.06118078 32416","CENTER_NAME":"EARTH","LAUNCH_DATE":"2021-03-14","CLASSIFICATION_TYPE":"U","MEAN_ELEMENT_THEORY":"SGP4","TIME_SYSTEM":"UTC","REV_AT_EPOCH":"3241","EPOCH":"2021-10-07T11:43:49.631232","MEAN_MOTION_DDOT":"0.0000000000000","ARG_OF_PERICENTER":"81.6950","TLE_LINE1":"1 47897U 21021AP  21280.48876888  .00051496  00000-0  34772-2 0  9991","DECAY_DATE":null,"MEAN_MOTION_DOT":"0.00051496","FILE":"3149284","REF_FRAME":"TEME","OBJECT_ID":"2021-021AP","APOAPSIS":"548.923","MEAN_ANOMALY":"278.4177","ECCENTRICITY":"0.00012200","OBJECT_NAME":"STARLINK-2357"},{"MEAN_MOTION":"15.06397727","TLE_LINE2":"2 47898  53.0574 318.0715 0001253  90.3893 269.7240 15.06397727 32417","CENTER_NAME":"EARTH","PERIAPSIS":"546.353","PERIOD":"95.592","ELEMENT_SET_NO":"999","INCLINATION":"53.0574","SEMIMAJOR_AXIS":"6925.356","SITE":"AFETR","OBJECT_TYPE":"PAYLOAD","NORAD_CAT_ID":"47898","RA_OF_ASC_NODE":"318.0715","RCS_SIZE":"LARGE","BSTAR":"0.00012660000000","EPHEMERIS_TYPE":"0","GP_ID":"186465218","COUNTRY_CODE":"US","MEAN_ANOMALY":"269.7240","ECCENTRICITY":"0.00012530","OBJECT_NAME":"STARLINK-2358","OBJECT_ID":"2021-021AQ","APOAPSIS":"548.088","TLE_LINE1":"1 47898U 21021AQ  21280.48237757  .00001605  00000-0  12660-3 0  9998","ARG_OF_PERICENTER":"90.3893","DECAY_DATE":null,"MEAN_MOTION_DOT":"0.00001605","REF_FRAME":"TEME","FILE":"3149284","CLASSIFICATION_TYPE":"U","LAUNCH_DATE":"2021-03-14","MEAN_ELEMENT_THEORY":"SGP4","REV_AT_EPOCH":"3241","TIME_SYSTEM":"UTC","MEAN_MOTION_DDOT":"0.0000000000000","EPOCH":"2021-10-07T11:34:37.422048"}];
